[{"OBJECT_NAME":"TIANMU-1 10","OBJECT_ID":"2023-101D","EPOCH":"2026-03-02T23:04:16.402944","MEAN_MOTION":15.29199753,"ECCENTRICITY":0.00068111,"INCLINATION":97.2766,"RA_OF_ASC_NODE":115.2537,"ARG_OF_PERICENTER":151.9768,"MEAN_ANOMALY":208.184,"EPHEMERIS_TYPE":0,"CLASSIFICATION_TYPE":"U","NORAD_CAT_ID":57402,"ELEMENT_SET_NO":999,"REV_AT_EPOCH":14540,"BSTAR":0.0003216334,"MEAN_MOTION_DOT":9.048e-5,"MEAN_MOTION_DDOT":0},{"OBJECT_NAME":"FENGYUN 3F","OBJECT_ID":"2023-111A","EPOCH":"2026-03-02T23:50:54.489408","MEAN_MOTION":14.19917552,"ECCENTRICITY":0.0001345,"INCLINATION":98.6942,"RA_OF_ASC_NODE":133.9416,"ARG_OF_PERICENTER":82.8538,"MEAN_ANOMALY":277.2791,"EPHEMERIS_TYPE":0,"CLASSIFICATION_TYPE":"U","NORAD_CAT_ID":57490,"ELEMENT_SET_NO":999,"REV_AT_EPOCH":13379,"BSTAR":6.2580459e-5,"MEAN_MOTION_DOT":8.9e-7,"MEAN_MOTION_DDOT":0},{"OBJECT_NAME":"ARKTIKA-M 2","OBJECT_ID":"2023-198A","EPOCH":"2026-03-02T02:03:24.321024","MEAN_MOTION":2.00614887,"ECCENTRICITY":0.68767689,"INCLINATION":63.22,"RA_OF_ASC_NODE":166.2306,"ARG_OF_PERICENTER":267.7889,"MEAN_ANOMALY":18.8403,"EPHEMERIS_TYPE":0,"CLASSIFICATION_TYPE":"U","NORAD_CAT_ID":58584,"ELEMENT_SET_NO":999,"REV_AT_EPOCH":1617,"BSTAR":0,"MEAN_MOTION_DOT":1.31e-6,"MEAN_MOTION_DDOT":0},{"OBJECT_NAME":"TIANMU-1 11","OBJECT_ID":"2023-205A","EPOCH":"2026-03-02T23:39:28.287648","MEAN_MOTION":15.25769183,"ECCENTRICITY":0.00097928,"INCLINATION":97.3547,"RA_OF_ASC_NODE":85.2455,"ARG_OF_PERICENTER":30.7222,"MEAN_ANOMALY":329.4588,"EPHEMERIS_TYPE":0,"CLASSIFICATION_TYPE":"U","NORAD_CAT_ID":58645,"ELEMENT_SET_NO":999,"REV_AT_EPOCH":12132,"BSTAR":0.00029440705,"MEAN_MOTION_DOT":7.456e-5,"MEAN_MOTION_DDOT":0},{"OBJECT_NAME":"TIANMU-1 12","OBJECT_ID":"2023-205B","EPOCH":"2026-03-03T00:25:41.101248","MEAN_MOTION":15.25691561,"ECCENTRICITY":0.00076002,"INCLINATION":97.3535,"RA_OF_ASC_NODE":85.0577,"ARG_OF_PERICENTER":17.4314,"MEAN_ANOMALY":342.7184,"EPHEMERIS_TYPE":0,"CLASSIFICATION_TYPE":"U","NORAD_CAT_ID":58646,"ELEMENT_SET_NO":999,"REV_AT_EPOCH":12131,"BSTAR":0.00031084424,"MEAN_MOTION_DOT":7.855e-5,"MEAN_MOTION_DDOT":0},{"OBJECT_NAME":"TIANMU-1 13","OBJECT_ID":"2023-205C","EPOCH":"2026-03-02T23:36:02.858688","MEAN_MOTION":15.2574062,"ECCENTRICITY":0.00072319,"INCLINATION":97.3563,"RA_OF_ASC_NODE":85.2597,"ARG_OF_PERICENTER":359.0604,"MEAN_ANOMALY":1.062,"EPHEMERIS_TYPE":0,"CLASSIFICATION_TYPE":"U","NORAD_CAT_ID":58647,"ELEMENT_SET_NO":999,"REV_AT_EPOCH":12130,"BSTAR":0.00029846664,"MEAN_MOTION_DOT":7.549e-5,"MEAN_MOTION_DDOT":0},{"OBJECT_NAME":"TIANMU-1 14","OBJECT_ID":"2023-205D","EPOCH":"2026-03-02T23:13:40.941408","MEAN_MOTION":15.25717404,"ECCENTRICITY":0.00081556,"INCLINATION":97.3497,"RA_OF_ASC_NODE":84.5194,"ARG_OF_PERICENTER":2.0965,"MEAN_ANOMALY":358.0306,"EPHEMERIS_TYPE":0,"CLASSIFICATION_TYPE":"U","NORAD_CAT_ID":58648,"ELEMENT_SET_NO":999,"REV_AT_EPOCH":12130,"BSTAR":0.000297177,"MEAN_MOTION_DOT":7.513e-5,"MEAN_MOTION_DDOT":0},{"OBJECT_NAME":"TIANMU-1 19","OBJECT_ID":"2023-208A","EPOCH":"2026-03-02T22:14:53.929248","MEAN_MOTION":15.29657952,"ECCENTRICITY":0.0004389,"INCLINATION":97.4387,"RA_OF_ASC_NODE":177.9083,"ARG_OF_PERICENTER":345.9198,"MEAN_ANOMALY":14.192,"EPHEMERIS_TYPE":0,"CLASSIFICATION_TYPE":"U","NORAD_CAT_ID":58660,"ELEMENT_SET_NO":999,"REV_AT_EPOCH":12107,"BSTAR":0.00040252742,"MEAN_MOTION_DOT":0.00011499,"MEAN_MOTION_DDOT":0},{"OBJECT_NAME":"TIANMU-1 20","OBJECT_ID":"2023-208B","EPOCH":"2026-03-02T21:59:52.247616","MEAN_MOTION":15.30848692,"ECCENTRICITY":0.0006689,"INCLINATION":97.4325,"RA_OF_ASC_NODE":178.4248,"ARG_OF_PERICENTER":351.7442,"MEAN_ANOMALY":8.3688,"EPHEMERIS_TYPE":0,"CLASSIFICATION_TYPE":"U","NORAD_CAT_ID":58661,"ELEMENT_SET_NO":999,"REV_AT_EPOCH":12115,"BSTAR":0.00039535167,"MEAN_MOTION_DOT":0.00011721,"MEAN_MOTION_DDOT":0},{"OBJECT_NAME":"TIANMU-1 21","OBJECT_ID":"2023-208C","EPOCH":"2026-03-02T22:10:26.258592","MEAN_MOTION":15.3283155,"ECCENTRICITY":0.00064327,"INCLINATION":97.4379,"RA_OF_ASC_NODE":180.681,"ARG_OF_PERICENTER":344.9251,"MEAN_ANOMALY":15.1799,"EPHEMERIS_TYPE":0,"CLASSIFICATION_TYPE":"U","NORAD_CAT_ID":58662,"ELEMENT_SET_NO":999,"REV_AT_EPOCH":12127,"BSTAR":0.00043170574,"MEAN_MOTION_DOT":0.00013627,"MEAN_MOTION_DDOT":0},{"OBJECT_NAME":"TIANMU-1 22","OBJECT_ID":"2023-208D","EPOCH":"2026-03-02T22:37:53.963616","MEAN_MOTION":15.29287334,"ECCENTRICITY":0.00036654,"INCLINATION":97.4381,"RA_OF_ASC_NODE":177.9397,"ARG_OF_PERICENTER":17.6459,"MEAN_ANOMALY":342.4908,"EPHEMERIS_TYPE":0,"CLASSIFICATION_TYPE":"U","NORAD_CAT_ID":58663,"ELEMENT_SET_NO":999,"REV_AT_EPOCH":12108,"BSTAR":0.00038111989,"MEAN_MOTION_DOT":0.00010758,"MEAN_MOTION_DDOT":0},{"OBJECT_NAME":"TIANMU-1 15","OBJECT_ID":"2024-004A","EPOCH":"2026-03-02T23:10:26.983776","MEAN_MOTION":15.25711751,"ECCENTRICITY":0.00072294,"INCLINATION":97.4661,"RA_OF_ASC_NODE":248.2136,"ARG_OF_PERICENTER":13.5072,"MEAN_ANOMALY":346.6358,"EPHEMERIS_TYPE":0,"CLASSIFICATION_TYPE":"U","NORAD_CAT_ID":58700,"ELEMENT_SET_NO":999,"REV_AT_EPOCH":11957,"BSTAR":0.000292094,"MEAN_MOTION_DOT":7.378e-5,"MEAN_MOTION_DDOT":0},{"OBJECT_NAME":"TIANMU-1 16","OBJECT_ID":"2024-004B","EPOCH":"2026-03-02T22:46:52.838688","MEAN_MOTION":15.25744766,"ECCENTRICITY":0.00057655,"INCLINATION":97.4602,"RA_OF_ASC_NODE":247.5253,"ARG_OF_PERICENTER":19.2782,"MEAN_ANOMALY":340.8673,"EPHEMERIS_TYPE":0,"CLASSIFICATION_TYPE":"U","NORAD_CAT_ID":58701,"ELEMENT_SET_NO":999,"REV_AT_EPOCH":11957,"BSTAR":0.00031282092,"MEAN_MOTION_DOT":7.914e-5,"MEAN_MOTION_DDOT":0},{"OBJECT_NAME":"TIANMU-1 17","OBJECT_ID":"2024-004C","EPOCH":"2026-03-02T22:21:40.089600","MEAN_MOTION":15.25781652,"ECCENTRICITY":0.00049961,"INCLINATION":97.4634,"RA_OF_ASC_NODE":247.9582,"ARG_OF_PERICENTER":22.444,"MEAN_ANOMALY":337.7015,"EPHEMERIS_TYPE":0,"CLASSIFICATION_TYPE":"U","NORAD_CAT_ID":58702,"ELEMENT_SET_NO":999,"REV_AT_EPOCH":11956,"BSTAR":0.00034901744,"MEAN_MOTION_DOT":8.848e-5,"MEAN_MOTION_DDOT":0},{"OBJECT_NAME":"TIANMU-1 18","OBJECT_ID":"2024-004D","EPOCH":"2026-03-02T23:34:25.497984","MEAN_MOTION":15.2573337,"ECCENTRICITY":0.00044015,"INCLINATION":97.4651,"RA_OF_ASC_NODE":248.2191,"ARG_OF_PERICENTER":23.5208,"MEAN_ANOMALY":336.623,"EPHEMERIS_TYPE":0,"CLASSIFICATION_TYPE":"U","NORAD_CAT_ID":58703,"ELEMENT_SET_NO":999,"REV_AT_EPOCH":11957,"BSTAR":0.00031733349,"MEAN_MOTION_DOT":8.025e-5,"MEAN_MOTION_DDOT":0},{"OBJECT_NAME":"INSAT-3DS","OBJECT_ID":"2024-033A","EPOCH":"2026-03-02T17:23:38.749056","MEAN_MOTION":1.00270356,"ECCENTRICITY":0.00023089,"INCLINATION":0.0599,"RA_OF_ASC_NODE":265.445,"ARG_OF_PERICENTER":89.1854,"MEAN_ANOMALY":148.8435,"EPHEMERIS_TYPE":0,"CLASSIFICATION_TYPE":"U","NORAD_CAT_ID":58990,"ELEMENT_SET_NO":999,"REV_AT_EPOCH":4600,"BSTAR":0,"MEAN_MOTION_DOT":-1.72e-6,"MEAN_MOTION_DDOT":0},{"OBJECT_NAME":"METEOR-M2 4","OBJECT_ID":"2024-039A","EPOCH":"2026-03-02T23:11:52.681344","MEAN_MOTION":14.22415869,"ECCENTRICITY":0.00080463,"INCLINATION":98.6894,"RA_OF_ASC_NODE":22.6695,"ARG_OF_PERICENTER":113.2584,"MEAN_ANOMALY":246.9442,"EPHEMERIS_TYPE":0,"CLASSIFICATION_TYPE":"U","NORAD_CAT_ID":59051,"ELEMENT_SET_NO":999,"REV_AT_EPOCH":10416,"BSTAR":3.7140716e-5,"MEAN_MOTION_DOT":3.9e-7,"MEAN_MOTION_DDOT":0}]
