TIANMU-1 10             
1 57402U 23101D   26061.96130096  .00009048  00000+0  32163-3 0  9992
2 57402  97.2766 115.2537 0006811 151.9768 208.1840 15.29199753145402
FENGYUN 3F              
1 57490U 23111A   26061.99368622  .00000089  00000+0  62580-4 0  9994
2 57490  98.6942 133.9416 0001345  82.8538 277.2791 14.19917552133791
ARKTIKA-M 2             
1 58584U 23198A   26061.08569816  .00000131  00000+0  00000+0 0  9994
2 58584  63.2200 166.2306 6876768 267.7889  18.8403  2.00614887 16179
TIANMU-1 11             
1 58645U 23205A   26061.98574407  .00007456  00000+0  29441-3 0  9993
2 58645  97.3547  85.2455 0009792  30.7222 329.4588 15.25769183121322
TIANMU-1 12             
1 58646U 23205B   26062.01783682  .00007855  00000+0  31084-3 0  9995
2 58646  97.3535  85.0577 0007600  17.4314 342.7184 15.25691561121316
TIANMU-1 13             
1 58647U 23205C   26061.98336642  .00007549  00000+0  29847-3 0  9995
2 58647  97.3563  85.2597 0007231 359.0604   1.0620 15.25740620121309
TIANMU-1 14             
1 58648U 23205D   26061.96783497  .00007513  00000+0  29718-3 0  9996
2 58648  97.3497  84.5194 0008155   2.0965 358.0306 15.25717404121302
TIANMU-1 19             
1 58660U 23208A   26061.92701307  .00011499  00000+0  40253-3 0  9994
2 58660  97.4387 177.9083 0004389 345.9198  14.1920 15.29657952121072
TIANMU-1 20             
1 58661U 23208B   26061.91657694  .00011721  00000+0  39535-3 0  9992
2 58661  97.4325 178.4248 0006689 351.7442   8.3688 15.30848692121156
TIANMU-1 21             
1 58662U 23208C   26061.92391503  .00013627  00000+0  43171-3 0  9996
2 58662  97.4379 180.6810 0006432 344.9251  15.1799 15.32831550121273
TIANMU-1 22             
1 58663U 23208D   26061.94298569  .00010758  00000+0  38112-3 0  9998
2 58663  97.4381 177.9397 0003665  17.6459 342.4908 15.29287334121083
TIANMU-1 15             
1 58700U 24004A   26061.96559009  .00007378  00000+0  29209-3 0  9997
2 58700  97.4661 248.2136 0007229  13.5072 346.6358 15.25711751119572
TIANMU-1 16             
1 58701U 24004B   26061.94922267  .00007914  00000+0  31282-3 0  9996
2 58701  97.4602 247.5253 0005765  19.2782 340.8673 15.25744766119572
TIANMU-1 17             
1 58702U 24004C   26061.93171400  .00008848  00000+0  34902-3 0  9990
2 58702  97.4634 247.9582 0004996  22.4440 337.7015 15.25781652119568
TIANMU-1 18             
1 58703U 24004D   26061.98223956  .00008025  00000+0  31733-3 0  9996
2 58703  97.4651 248.2191 0004401  23.5208 336.6230 15.25733370119575
INSAT-3DS               
1 58990U 24033A   26061.72475404 -.00000172  00000+0  00000+0 0  9990
2 58990   0.0599 265.4450 0002308  89.1854 148.8435  1.00270356 46007
METEOR-M2 4             
1 59051U 24039A   26061.96658196  .00000039  00000+0  37141-4 0  9994
2 59051  98.6894  22.6695 0008046 113.2584 246.9442 14.22415869104163
